NORAD_CAT_ID,OBJECT_NAME,OBJECT_TYPE,EPOCH,MEAN_MOTION,ECCENTRICITY,INCLINATION,RA_OF_ASC_NODE,ARG_OF_PERICENTER,MEAN_ANOMALY,BSTAR,MEAN_MOTION_DOT,MEAN_MOTION_DDOT,TLE_LINE0,TLE_LINE1,TLE_LINE2,SEMIMAJOR_AXIS,PERIOD,APOGEE,PERIGEE,DECAYED
51461.0,STARLINK-3181,PAYLOAD,2022-05-01 14:00:01,15.08837199,0.0002172,53.2155,120.3442,40.3994,20.3029,-0.0011341,-0.00018291,0.0,0 STARLINK-3181,1 51461U 22010F   22121.58334491 -.00018291  00000-0 -11341-2 0  9992,2 51461  53.2155 120.3442 0002172  40.3994  20.3029 15.08837199 14740,6917.889,95.438,541.257,538.251,0.0
51461.0,STARLINK-3181,PAYLOAD,2022-05-01 22:00:01,15.08813028,0.000202,53.2157,118.8464,46.2551,26.1026,0.0026943,0.00042821,0.0,0 STARLINK-3181,1 51461U 22010F   22121.91668981  .00042821  00000-0  26943-2 0  9991,2 51461  53.2157 118.8464 0002020  46.2551  26.1026 15.08813028  3579,6917.9630000000025,95.439,541.225,538.43,0.0
51461.0,STARLINK-3181,PAYLOAD,2022-05-02 06:00:00,15.08841517,0.0002214,53.2157,117.3518,43.8248,40.0514,-0.0011387,-0.00018366,0.0,0 STARLINK-3181,1 51461U 22010F   22122.25001157 -.00018366  00000-0 -11387-2 0  9990,2 51461  53.2157 117.3518 0002214  43.8248  40.0514 15.08841517 14847,6917.876,95.437,541.2719999999998,538.2090000000002,0.0
51461.0,STARLINK-3181,PAYLOAD,2022-05-02 14:00:01,15.08851012,0.000223,53.2156,115.8551,42.2945,53.1665,-0.0014025,-0.00022547,0.0,0 STARLINK-3181,1 51461U 22010F   22122.58334491 -.00022547  00000-0 -14025-2 0  9994,2 51461  53.2156 115.8551 0002230  42.2945  53.1665 15.08851012  3606,6917.847,95.437,541.254,538.169,0.0
51461.0,STARLINK-3181,PAYLOAD,2022-05-02 22:00:01,15.08829766,0.0002116,53.2158,114.3572,47.9996,59.1303,0.0023792,0.0003777,0.0,0 STARLINK-3181,1 51461U 22010F   22122.91668981  .00037770  00000-0  23792-2 0  9998,2 51461  53.2158 114.3572 0002116  47.9996  59.1303 15.08829766 14941,6917.9119999999975,95.438,541.241,538.313,0.0
51461.0,STARLINK-3181,PAYLOAD,2022-05-03 14:00:01,15.08878714,0.0002278,53.216,111.3658,43.0837,87.1807,-0.0042102,-0.00066747,0.0,0 STARLINK-3181,1 51461U 22010F   22123.58334491 -.00066747  00000-0 -42102-2 0  9992,2 51461  53.2160 111.3658 0002278  43.0837  87.1807 15.08878714 15045,6917.762,95.435,541.203,538.0509999999998,0.0
51461.0,STARLINK-3181,PAYLOAD,2022-05-03 22:00:00,15.08820986,0.0002133,53.2165,109.8681,47.3316,94.55,0.0021126,0.00033477,0.0,0 STARLINK-3181,1 51461U 22010F   22123.91667824  .00033477  00000-0  21126-2 0  9993,2 51461  53.2165 109.8681 0002133  47.3316  94.5500 15.08820986  3561,6917.939,95.439,541.279,538.328,0.0
51461.0,STARLINK-3181,PAYLOAD,2022-05-04 06:00:02,15.08838449,0.0002336,53.2165,108.3736,44.2134,109.3197,-0.00025802,-4.392e-05,0.0,0 STARLINK-3181,1 51461U 22010F   22124.25002315 -.00004392  00000-0 -25802-3 0  9991,2 51461  53.2165 108.3736 0002336  44.2134 109.3197 15.08838449 15142,6917.885,95.438,541.366,538.134,0.0
51461.0,STARLINK-3181,PAYLOAD,2022-05-04 14:00:01,15.088594699999998,0.0002301,53.2167,106.8767,43.5876,121.4695,-0.0016527999999999,-0.00026511,0.0,0 STARLINK-3181,1 51461U 22010F   22124.58334491 -.00026511  00000-0 -16528-2 0  9991,2 51461  53.2167 106.8767 0002301  43.5876 121.4695 15.08859470  3601,6917.821,95.436,541.278,538.094,0.0
51461.0,STARLINK-3181,PAYLOAD,2022-05-04 22:00:01,15.088509099999998,0.0002174,53.2172,105.3792,48.1274,128.6035,-0.0008148999999999,-0.00013238,0.0,0 STARLINK-3181,1 51461U 22010F   22124.91668981 -.00013238  00000-0 -81490-3 0  9995,2 51461  53.2172 105.3792 0002174  48.1274 128.6035 15.08850910  3607,6917.847,95.437,541.216,538.2080000000002,0.0
51461.0,STARLINK-3181,PAYLOAD,2022-05-05 14:00:01,15.08857211,0.0002268,53.2174,102.3877,43.4399,156.4094,-0.0021269,-0.00033996,0.0,0 STARLINK-3181,1 51461U 22010F   22125.58334491 -.00033996  00000-0 -21269-2 0  9995,2 51461  53.2174 102.3877 0002268  43.4399 156.4094 15.08857211  3560,6917.828,95.436,541.262,538.124,0.0
51461.0,STARLINK-3181,PAYLOAD,2022-05-05 16:00:00,15.08853162,0.0002201,53.2177,102.0132,44.4592,248.2922,-0.0020612,-0.00032956,0.0,0 STARLINK-3181,1 51461U 22010F   22125.66667824 -.00032956  00000-0 -20612-2 0  9999,2 51461  53.2177 102.0132 0002201  44.4592 248.2922 15.08853162 15369,6917.84,95.437,541.2280000000002,538.183,0.0
51461.0,STARLINK-3181,PAYLOAD,2022-05-05 22:00:00,15.08834194,0.0002133,53.2179,100.8906,47.4516,163.9988,-0.00055811,-9.158e-05,0.0,0 STARLINK-3181,1 51461U 22010F   22125.91667824 -.00009158  00000-0 -55811-3 0  9995,2 51461  53.2179 100.8906 0002133  47.4516 163.9988 15.08834194  3567,6917.898,95.438,541.239,538.288,0.0
51461.0,STARLINK-3181,PAYLOAD,2022-05-06 14:00:01,15.08842691,0.0002213,53.2178,97.8989,43.4691,191.1308,-0.001928,-0.00030845,0.0,0 STARLINK-3181,1 51461U 22010F   22126.58334491 -.00030845  00000-0 -19280-2 0  9996,2 51461  53.2178  97.8989 0002213  43.4691 191.1308 15.08842691 15496,6917.871999999999,95.437,541.268,538.206,0.0
51461.0,STARLINK-3181,PAYLOAD,2022-05-07 06:00:02,15.08828469,0.0002329,53.2181,94.9073,44.4418,213.3963,0.00091892,0.00014362,0.0,0 STARLINK-3181,1 51461U 22010F   22127.25002315  .00014362  00000-0  91892-3 0  9992,2 51461  53.2181  94.9073 0002329  44.4418 213.3963 15.08828469 15590,6917.916,95.438,541.3919999999998,538.169,0.0
51461.0,STARLINK-3181,PAYLOAD,2022-05-07 14:00:01,15.08858905,0.00022,53.2178,93.41,45.5594,223.803,-0.0018587,-0.00029764,0.0,0 STARLINK-3181,1 51461U 22010F   22127.58334491 -.00029764  00000-0 -18587-2 0  9994,2 51461  53.2178  93.4100 0002200  45.5594 223.8030 15.08858905  3604,6917.823,95.436,541.21,538.1659999999998,0.0
51461.0,STARLINK-3181,PAYLOAD,2022-05-07 22:00:00,15.08860497,0.0002079,53.218,91.9131,49.9834,230.9785,-0.0021043,-0.00033642,0.0,0 STARLINK-3181,1 51461U 22010F   22127.91667824 -.00033642  00000-0 -21043-2 0  9991,2 51461  53.2180  91.9131 0002079  49.9834 230.9785 15.08860497  3608,6917.818,95.436,541.121,538.245,0.0
51461.0,STARLINK-3181,PAYLOAD,2022-05-08 06:00:00,15.08816382,0.0002251,53.2178,90.4186,44.6042,247.971,0.0013742,0.00021636,0.0,0 STARLINK-3181,1 51461U 22010F   22128.25001157  .00021636  00000-0  13742-2 0  9995,2 51461  53.2178  90.4186 0002251  44.6042 247.9710 15.08816382 15753,6917.953,95.439,541.375,538.26,0.0
51461.0,STARLINK-3181,PAYLOAD,2022-05-08 14:00:01,15.08843991,0.0002133,53.2174,88.9211,46.1214,258.0252,-0.0016492,-0.00026443,0.0,0 STARLINK-3181,1 51461U 22010F   22128.58334491 -.00026443  00000-0 -16492-2 0  9999,2 51461  53.2174  88.9211 0002133  46.1214 258.0252 15.08843991  3563,6917.868,95.437,541.2090000000002,538.258,0.0
51461.0,STARLINK-3181,PAYLOAD,2022-05-08 22:00:00,15.08842514,0.0002068,53.2175,87.4244,51.1359,264.5956,0.00057618,8.894e-05,0.0,0 STARLINK-3181,1 51461U 22010F   22128.91667824  .00008894  00000-0  57618-3 0  9999,2 51461  53.2175  87.4244 0002068  51.1359 264.5956 15.08842514  3560,6917.873000000001,95.437,541.168,538.307,0.0
51461.0,STARLINK-3181,PAYLOAD,2022-05-09 06:00:00,15.08831584,0.0002275,53.2173,85.9298,46.852,280.4862,0.0019259,0.00030489,0.0,0 STARLINK-3181,1 51461U 22010F   22129.25001157  .00030489  00000-0  19259-2 0  9991,2 51461  53.2173  85.9298 0002275  46.8520 280.4862 15.08831584 15900,6917.906,95.438,541.345,538.197,0.0
51461.0,STARLINK-3181,PAYLOAD,2022-05-09 14:00:01,15.0886285,0.0002151,53.217,84.4319,48.6588,290.3399,-0.00096836,-0.00015677,0.0,0 STARLINK-3181,1 51461U 22010F   22129.58335648 -.00015677  00000-0 -96836-3 0  9993,2 51461  53.2170  84.4319 0002151  48.6588 290.3399 15.08862850  3566,6917.811,95.436,541.164,538.188,0.0
51461.0,STARLINK-3181,PAYLOAD,2022-05-09 22:00:00,15.08881833,0.0002073,53.2171,82.9353,51.8659,298.6782,-0.0032803,-0.00052177,0.0,0 STARLINK-3181,1 51461U 22010F   22129.91667824 -.00052177  00000-0 -32803-2 0  9993,2 51461  53.2171  82.9353 0002073  51.8659 298.6782 15.08881833  3565,6917.753000000002,95.435,541.052,538.183,0.0
51461.0,STARLINK-3181,PAYLOAD,2022-05-10 08:00:01,15.08829787,0.0002183,53.2167,81.0665,44.1361,50.9316,0.0011208,0.0001759,0.0,0 STARLINK-3181,1 51461U 22010F   22130.33334491  .00017590  00000-0  11208-2 0  9996,2 51461  53.2167  81.0665 0002183  44.1361  50.9316 15.08829787 16064,6917.9119999999975,95.438,541.2869999999998,538.266,0.0
51461.0,STARLINK-3181,PAYLOAD,2022-05-10 14:00:01,15.0884017,0.000205,53.2168,79.9426,47.0781,326.6843,-0.0022399,-0.00035761,0.0,0 STARLINK-3181,1 51461U 22010F   22130.58334491 -.00035761  00000-0 -22399-2 0  9998,2 51461  53.2168  79.9426 0002050  47.0781 326.6843 15.08840170  3600,6917.88,95.438,541.163,538.327,0.0
51461.0,STARLINK-3181,PAYLOAD,2022-05-10 18:00:00,15.08800292,0.0001979,53.2167,79.1937,48.5057,151.0544,0.0028577,0.00045437,0.0,0 STARLINK-3181,1 51461U 22010F   22130.75001157  .00045437  00000-0  28577-2 0  9990,2 51461  53.2167  79.1937 0001979  48.5057 151.0544 15.08800292 16129,6918.002,95.44,541.236,538.498,0.0
51461.0,STARLINK-3181,PAYLOAD,2022-05-11 22:00:00,15.08862966,0.0002071,53.2174,73.9568,49.8792,10.2198,-0.0026682,-0.0004253,0.0,0 STARLINK-3181,1 51461U 22010F   22131.91667824 -.00042530  00000-0 -26682-2 0  9996,2 51461  53.2174  73.9568 0002071  49.8792  10.2198 15.08862966 16300,6917.81,95.436,541.1080000000002,538.243,0.0
51461.0,STARLINK-3181,PAYLOAD,2022-05-12 14:00:01,15.0884673,0.0002052,53.2179,70.9639,47.2881,36.0035,-0.00031723,-5.334e-05,0.0,0 STARLINK-3181,1 51461U 22010F   22132.58334491 -.00005334  00000-0 -31723-3 0  9995,2 51461  53.2179  70.9639 0002052  47.2881  36.0035 15.08846730  1302,6917.86,95.437,541.144,538.305,0.0
51461.0,STARLINK-3181,PAYLOAD,2022-05-12 20:00:01,15.08825694,0.0002176,53.2177,69.8425,51.3342,310.6172,0.00055124,8.492e-05,0.0,0 STARLINK-3181,1 51461U 22010F   22132.83334491  .00008492  00000-0  55124-3 0  9990,2 51461  53.2177  69.8425 0002176  51.3342 310.6172 15.08825694 16445,6917.924,95.438,541.294,538.284,0.0
